{
  "type": "FeatureCollection",
  "features": [
    {
      "type": "Feature",
      "properties": {
        "norad_id": 66595,
        "name": "STARLINK-35711",
        "group": "last-30-days",
        "lat": -38.46921004428652,
        "lon": 24.66172233860683,
        "alt_km": 419.48337966008876,
        "timestamp": "2025-12-20T16:47:35.021906+00:00",
        "meta_object_name": "STARLINK-35711",
        "meta_object_id": "2025-270H",
        "meta_epoch": "2025-12-20T03:22:00.602400",
        "meta_mean_motion": 15.5018184,
        "meta_eccentricity": 0.00034215,
        "meta_inclination": 42.999,
        "meta_ra_of_asc_node": 149.4265,
        "meta_arg_of_pericenter": 341.0071,
        "meta_mean_anomaly": 19.0661,
        "meta_ephemeris_type": 0,
        "meta_classification_type": "U",
        "meta_norad_cat_id": 66595,
        "meta_element_set_no": 999,
        "meta_rev_at_epoch": 560,
        "meta_bstar": 0.0012292638,
        "meta_mean_motion_dot": 0.00071426,
        "meta_mean_motion_ddot": 0,
        "tle_line1": "1 66595U 25270H   25354.14028475  .00071426  00000+0  12293-2 0  9995",
        "tle_line2": "2 66595  42.9990 149.4265 0003421 341.0071  19.0661 15.50181840  5600"
      },
      "geometry": {
        "type": "Point",
        "coordinates": [
          24.66172233860683,
          -38.46921004428652
        ]
      }
    },
    {
      "type": "Feature",
      "properties": {
        "norad_id": 66596,
        "name": "STARLINK-35811",
        "group": "last-30-days",
        "lat": -26.220912395132306,
        "lon": 114.94047968313271,
        "alt_km": 446.00998771712693,
        "timestamp": "2025-12-20T16:47:35.021929+00:00",
        "meta_object_name": "STARLINK-35811",
        "meta_object_id": "2025-270J",
        "meta_epoch": "2025-12-20T10:44:39.513984",
        "meta_mean_motion": 15.40718424,
        "meta_eccentricity": 0.0001351,
        "meta_inclination": 42.998,
        "meta_ra_of_asc_node": 148.3021,
        "meta_arg_of_pericenter": 251.8242,
        "meta_mean_anomaly": 108.2467,
        "meta_ephemeris_type": 0,
        "meta_classification_type": "U",
        "meta_norad_cat_id": 66596,
        "meta_element_set_no": 999,
        "meta_rev_at_epoch": 564,
        "meta_bstar": 0.00085933,
        "meta_mean_motion_dot": 0.00035783,
        "meta_mean_motion_ddot": 0,
        "tle_line1": "1 66596U 25270J   25354.44767956  .00035783  00000+0  85933-3 0  9991",
        "tle_line2": "2 66596  42.9980 148.3021 0001351 251.8242 108.2467 15.40718424  5648"
      },
      "geometry": {
        "type": "Point",
        "coordinates": [
          114.94047968313271,
          -26.220912395132306
        ]
      }
    },
    {
      "type": "Feature",
      "properties": {
        "norad_id": 66597,
        "name": "STARLINK-35820",
        "group": "last-30-days",
        "lat": 6.353281942980243,
        "lon": 153.59158035059215,
        "alt_km": 442.76940675471906,
        "timestamp": "2025-12-20T16:47:35.021941+00:00",
        "meta_object_name": "STARLINK-35820",
        "meta_object_id": "2025-270K",
        "meta_epoch": "2025-12-20T12:05:06.575712",
        "meta_mean_motion": 15.40728378,
        "meta_eccentricity": 0.0002328,
        "meta_inclination": 42.9989,
        "meta_ra_of_asc_node": 147.8597,
        "meta_arg_of_pericenter": 279.6537,
        "meta_mean_anomaly": 80.4056,
        "meta_ephemeris_type": 0,
        "meta_classification_type": "U",
        "meta_norad_cat_id": 66597,
        "meta_element_set_no": 999,
        "meta_rev_at_epoch": 565,
        "meta_bstar": 0.001115,
        "meta_mean_motion_dot": 0.00046603,
        "meta_mean_motion_ddot": 0,
        "tle_line1": "1 66597U 25270K   25354.50354833  .00046603  00000+0  11150-2 0  9997",
        "tle_line2": "2 66597  42.9989 147.8597 0002328 279.6537  80.4056 15.40728378  5655"
      },
      "geometry": {
        "type": "Point",
        "coordinates": [
          153.59158035059215,
          6.353281942980243
        ]
      }
    },
    {
      "type": "Feature",
      "properties": {
        "norad_id": 66598,
        "name": "STARLINK-35981",
        "group": "last-30-days",
        "lat": 42.641305699460055,
        "lon": -114.68100527680046,
        "alt_km": 438.5762759973941,
        "timestamp": "2025-12-20T16:47:35.021951+00:00",
        "meta_object_name": "STARLINK-35981",
        "meta_object_id": "2025-270L",
        "meta_epoch": "2025-12-20T12:00:02.000160",
        "meta_mean_motion": 15.4069566,
        "meta_eccentricity": 0.0001939,
        "meta_inclination": 42.9998,
        "meta_ra_of_asc_node": 147.6702,
        "meta_arg_of_pericenter": 265.7897,
        "meta_mean_anomaly": 161.7796,
        "meta_ephemeris_type": 0,
        "meta_classification_type": "U",
        "meta_norad_cat_id": 66598,
        "meta_element_set_no": 999,
        "meta_rev_at_epoch": 548,
        "meta_bstar": 0.00027829,
        "meta_mean_motion_dot": 0.00011337,
        "meta_mean_motion_ddot": 0,
        "tle_line1": "1 66598U 25270L   25354.50002315  .00011337  00000+0  27829-3 0  9990",
        "tle_line2": "2 66598  42.9998 147.6702 0001939 265.7897 161.7796 15.40695660  5486"
      },
      "geometry": {
        "type": "Point",
        "coordinates": [
          -114.68100527680046,
          42.641305699460055
        ]
      }
    },
    {
      "type": "Feature",
      "properties": {
        "norad_id": 66599,
        "name": "STARLINK-35930",
        "group": "last-30-days",
        "lat": -40.74208894230285,
        "lon": 33.723188756673494,
        "alt_km": 418.6837164241733,
        "timestamp": "2025-12-20T16:47:35.021961+00:00",
        "meta_object_name": "STARLINK-35930",
        "meta_object_id": "2025-270M",
        "meta_epoch": "2025-12-19T04:08:36.625632",
        "meta_mean_motion": 15.50348464,
        "meta_eccentricity": 0.0002903,
        "meta_inclination": 42.9985,
        "meta_ra_of_asc_node": 155.067,
        "meta_arg_of_pericenter": 324.189,
        "meta_mean_anomaly": 35.8775,
        "meta_ephemeris_type": 0,
        "meta_classification_type": "U",
        "meta_norad_cat_id": 66599,
        "meta_element_set_no": 999,
        "meta_rev_at_epoch": 534,
        "meta_bstar": -2.964998e-06,
        "meta_mean_motion_dot": -5.14e-06,
        "meta_mean_motion_ddot": 0,
        "tle_line1": "1 66599U 25270M   25353.17264613 -.00000514  00000+0 -29650-5 0  9997",
        "tle_line2": "2 66599  42.9985 155.0670 0002903 324.1890  35.8775 15.50348464  5346"
      },
      "geometry": {
        "type": "Point",
        "coordinates": [
          33.723188756673494,
          -40.74208894230285
        ]
      }
    },
    {
      "type": "Feature",
      "properties": {
        "norad_id": 66600,
        "name": "STARLINK-35980",
        "group": "last-30-days",
        "lat": 22.247132834948353,
        "lon": -59.63943807227053,
        "alt_km": 441.2519907511896,
        "timestamp": "2025-12-20T16:47:35.021971+00:00",
        "meta_object_name": "STARLINK-35980",
        "meta_object_id": "2025-270N",
        "meta_epoch": "2025-12-20T12:00:02.000160",
        "meta_mean_motion": 15.4069681,
        "meta_eccentricity": 0.0001869,
        "meta_inclination": 43.0001,
        "meta_ra_of_asc_node": 147.5494,
        "meta_arg_of_pericenter": 269.9678,
        "meta_mean_anomaly": 207.3592,
        "meta_ephemeris_type": 0,
        "meta_classification_type": "U",
        "meta_norad_cat_id": 66600,
        "meta_element_set_no": 999,
        "meta_rev_at_epoch": 554,
        "meta_bstar": 0.00027664,
        "meta_mean_motion_dot": 0.00011268,
        "meta_mean_motion_ddot": 0,
        "tle_line1": "1 66600U 25270N   25354.50002315  .00011268  00000+0  27664-3 0  9994",
        "tle_line2": "2 66600  43.0001 147.5494 0001869 269.9678 207.3592 15.40696810  5545"
      },
      "geometry": {
        "type": "Point",
        "coordinates": [
          -59.63943807227053,
          22.247132834948353
        ]
      }
    },
    {
      "type": "Feature",
      "properties": {
        "norad_id": 66601,
        "name": "STARLINK-35978",
        "group": "last-30-days",
        "lat": 29.931826509658368,
        "lon": -175.20376714292698,
        "alt_km": 439.20973140681417,
        "timestamp": "2025-12-20T16:47:35.021981+00:00",
        "meta_object_name": "STARLINK-35978",
        "meta_object_id": "2025-270P",
        "meta_epoch": "2025-12-19T18:48:31.837248",
        "meta_mean_motion": 15.40749629,
        "meta_eccentricity": 0.00015732,
        "meta_inclination": 43.0003,
        "meta_ra_of_asc_node": 151.9165,
        "meta_arg_of_pericenter": 292.4203,
        "meta_mean_anomaly": 67.6487,
        "meta_ephemeris_type": 0,
        "meta_classification_type": "U",
        "meta_norad_cat_id": 66601,
        "meta_element_set_no": 999,
        "meta_rev_at_epoch": 527,
        "meta_bstar": 0.0011909611,
        "meta_mean_motion_dot": 0.00049854,
        "meta_mean_motion_ddot": 0,
        "tle_line1": "1 66601U 25270P   25353.78370182  .00049854  00000+0  11910-2 0  9992",
        "tle_line2": "2 66601  43.0003 151.9165 0001573 292.4203  67.6487 15.40749629  5276"
      },
      "geometry": {
        "type": "Point",
        "coordinates": [
          -175.20376714292698,
          29.931826509658368
        ]
      }
    }
  ]
}